QIANFAN-57              
1 62787U 25016C   25240.91265617  .00000104  00000+0  14193-3 0  9999
2 62787  88.9811 114.1232 0002689  80.7423 279.4032 13.50961922 32910
QIANFAN-58              
1 62788U 25016D   25240.95794119  .00000076  00000+0  99095-4 0  9991
2 62788  88.9780 113.9830 0012342 294.2982  65.6880 13.50960965 32963
QIANFAN-59              
1 62789U 25016E   25240.89618496  .00000106  00000+0  14568-3 0  9993
2 62789  88.9804 114.0348 0013321 297.6943  62.2856 13.50965245 32950
QIANFAN-60              
1 62790U 25016F   25240.88780610  .00000084  00000+0  11161-3 0  9993
2 62790  88.9785 114.0352 0013729 295.1014  64.8712 13.50962421 32939
QIANFAN-61              
1 62791U 25016G   25240.75215082  .00000103  00000+0  14119-3 0  9994
2 62791  88.9853 114.1350 0013180 294.2019  65.7754 13.50968090 32935
QIANFAN-62              
1 62792U 25016H   25240.90430864  .00000100  00000+0  13699-3 0  9998
2 62792  88.9799 114.0451 0014554 293.6672  66.2951 13.50962106 32948
QIANFAN-63              
1 62793U 25016J   25240.91672148  .00000090  00000+0  12076-3 0  9999
2 62793  88.9806 113.9853 0014457 298.6876  61.2821 13.50959177 32984
QIANFAN-64              
1 62794U 25016K   25240.90841241  .00000107  00000+0  14681-3 0  9994
2 62794  88.9793 113.9805 0012168 292.4773  67.5090 13.50961771 32971
